     2.100          NAVIGATION                              RINEX VERSION / TYPE
fic2rin                                 03/14/2014 00:26:28 PGM / RUN BY / DATE
                                                            END OF HEADER
 7 14  3 13  9 59 12.0  .323495361954D-03  .420641299570D-11  .000000000000D+00
     .250000000000D+02  .304687500000D+02  .385480342518D-08  .298029067273D+01
     .164099037647D-05  .708222785033D-02  .113584101200D-04  .515364912415D+04
     .381552000000D+06 -.540167093277D-07  .284220838802D+01 -.689178705215D-07
     .974188272566D+00  .167437500000D+03 -.283828709170D+01 -.759245911354D-08
    -.342871424828D-10  .100000000000D+01  .178300000000D+04  .000000000000D+00
     .240000000000D+01  .000000000000D+00 -.107102096081D-07  .250000000000D+02
     .374406000000D+06  .400000000000D+01
 8 14  3 13  9 59 44.0  .122832134366D-04  .227373675443D-12  .000000000000D+00
     .200000000000D+02  .385937500000D+02  .333013871364D-08  .240849798377D+01
     .198557972908D-05  .135361794382D-01  .112969428301D-04  .515349692345D+04
     .381584000000D+06 -.279396772385D-06  .293987496411D+01 -.596046447754D-07
     .997398666024D+00  .181343750000D+03 -.278540113582D+01 -.736887837193D-08
    -.535736601294D-11  .100000000000D+01  .178300000000D+04  .000000000000D+00
     .240000000000D+01  .000000000000D+00 -.419095158577D-08  .200000000000D+02
     .374406000000D+06  .400000000000D+01
12 14  3 13  9 59 44.0  .191874336451D-03  .238742359215D-11  .000000000000D+00
     .300000000000D+01  .654687500000D+02  .404409702430D-08  .261947975852D+01
     .346824526787D-05  .495911960024D-02  .472553074360D-05  .515366129112D+04
     .381584000000D+06 -.763684511185D-07 -.237956879923D+01 -.763684511185D-07
     .986923293362D+00  .300937500000D+03  .358356048431D+00 -.800176187693D-08
     .431803700643D-09  .100000000000D+01  .178300000000D+04  .000000000000D+00
     .240000000000D+01  .000000000000D+00 -.121071934700D-07  .300000000000D+01
     .374406000000D+06  .400000000000D+01
25 14  3 13  9 59 44.0  .183130614460D-04  .147792889038D-11  .000000000000D+00
     .103000000000D+03  .730625000000D+02  .434303804782D-08  .182840100230D+01
     .375881791115D-05  .330282212235D-02  .481493771076D-05  .515364115334D+04
     .381584000000D+06 -.596046447754D-07 -.242112601113D+01  .223517417908D-07
     .975689925790D+00  .291500000000D+03  .614072814986D+00 -.822248535666D-08
     .410731394325D-09  .100000000000D+01  .178300000000D+04  .000000000000D+00
     .240000000000D+01  .000000000000D+00  .558793544769D-08  .103000000000D+03
     .374406000000D+06  .400000000000D+01
30 14  3 13  9 59 44.0  .382959842682D-05  .113686837722D-11  .000000000000D+00
     .200000000000D+01  .359375000000D+02  .415588739511D-08  .309089743217D+01
     .192038714886D-05  .283722532913D-03  .107008963823D-04  .516506008339D+04
     .381584000000D+06 -.149011611938D-07  .289769388787D+01 -.186264514923D-08
     .959719617774D+00  .169843750000D+03  .297694021143D+01 -.777532387345D-08
    -.232152527227D-10  .100000000000D+01  .178300000000D+04  .000000000000D+00
     .240000000000D+01  .630000000000D+02  .325962901115D-08  .200000000000D+01
     .374406000000D+06  .400000000000D+01
31 14  3 13  9 59 44.0  .333788804710D-03  .227373675443D-12  .000000000000D+00
     .120000000000D+02  .361875000000D+02  .369693970666D-08  .288890644033D+01
     .194273889065D-05  .815726630390D-02  .122375786304D-04  .515379740143D+04
     .381584000000D+06  .223517417908D-07  .284801854564D+01  .596046447754D-07
     .979143557922D+00  .153531250000D+03 -.641935236734D+00 -.750852704600D-08
    -.110004582132D-09  .100000000000D+01  .178300000000D+04  .000000000000D+00
     .240000000000D+01  .000000000000D+00 -.130385160446D-07  .120000000000D+02
     .374406000000D+06  .400000000000D+01
 1 14  3 13 10  0  0.0  .379793345928D-05  .181898940355D-11  .000000000000D+00
     .112000000000D+03 -.368750000000D+02  .439089718421D-08 -.268056870129D+01
    -.195205211639D-05  .280091259629D-02  .114738941193D-04  .515368734169D+04
     .381600000000D+06 -.391155481339D-07 -.318260555024D+00 -.689178705215D-07
     .961160672543D+00  .159062500000D+03  .346047506290D+00 -.783246911092D-08
     .725030200418D-10  .100000000000D+01  .178300000000D+04  .000000000000D+00
     .340000000000D+01  .000000000000D+00  .651925802231D-08  .112000000000D+03
     .374406000000D+06  .400000000000D+01
 2 14  3 13 10  0  0.0  .483642332256D-03  .216004991671D-11  .000000000000D+00
     .390000000000D+02 -.387812500000D+02  .485448792319D-08 -.204230959775D+01
    -.204704701900D-05  .133213151712D-01  .111479312181D-04  .515357723999D+04
     .381600000000D+06  .143423676491D-06 -.346198207334D+00 -.104308128357D-06
     .939676756486D+00  .150343750000D+03 -.246552192192D+01 -.799569019545D-08
     .214651798252D-09  .100000000000D+01  .178300000000D+04  .000000000000D+00
     .240000000000D+01  .000000000000D+00 -.200234353542D-07  .390000000000D+02
     .374406000000D+06  .400000000000D+01
 3 14  3 13 10  0  0.0  .337577890605D-03  .511590769747D-11  .000000000000D+00
     .480000000000D+02 -.596875000000D+02  .528522015063D-08 -.184254678961D+01
    -.279210507870D-05  .167937355582D-01  .263750553131D-05  .515377342796D+04
     .381600000000D+06  .353902578354D-06 -.152012995851D+01  .152736902237D-06
     .937188493754D+00  .308906250000D+03  .136845076604D+01 -.848356766036D-08
    -.825034365993D-10  .100000000000D+01  .178300000000D+04  .000000000000D+00
     .240000000000D+01  .000000000000D+00 -.465661287308D-08  .480000000000D+02
     .374406000000D+06  .400000000000D+01
 4 14  3 13 10  0  0.0  .607082620263D-05  .227373675443D-12  .000000000000D+00
     .200000000000D+01 -.368437500000D+02  .498306470750D-08  .136055125272D+01
    -.185519456863D-05  .105813242262D-01  .115074217319D-04  .515371235275D+04
     .381600000000D+06 -.266358256340D-06 -.330113724413D+00 -.204890966415D-07
     .938702213126D+00  .151625000000D+03  .108220717235D+01 -.826998733531D-08
     .246438836595D-10  .100000000000D+01  .178300000000D+04  .000000000000D+00
     .240000000000D+01  .000000000000D+00 -.605359673500D-08  .200000000000D+01
     .374406000000D+06  .400000000000D+01
 5 14  3 13 10  0  0.0 -.384548678994D-03  .181898940355D-11  .000000000000D+00
     .320000000000D+02  .427812500000D+02  .514271421469D-08  .237116038206D+00
     .224821269512D-05  .358589028474D-02  .615417957306D-05  .515354835701D+04
     .381600000000D+06  .298023223877D-07  .720549399740D+00  .204890966415D-07
     .947670401270D+00  .250156250000D+03  .343517655723D+00 -.843427989304D-08
     .231438211759D-09  .100000000000D+01  .178300000000D+04  .000000000000D+00
     .240000000000D+01  .000000000000D+00 -.102445483208D-07  .320000000000D+02
     .374406000000D+06  .400000000000D+01
 9 14  3 13 10  0  0.0  .312036368996D-03  .284217094304D-11  .000000000000D+00
     .250000000000D+02  .341250000000D+02  .363122268357D-08 -.218881146316D+01
     .192970037460D-05  .169818224385D-01  .109337270260D-04  .515369322777D+04
     .381600000000D+06  .203028321266D-06  .282123837606D+01  .234693288803D-06
     .982733858787D+00  .176656250000D+03  .177658722494D+01 -.737244994928D-08
    -.871464871438D-10  .100000000000D+01  .178300000000D+04  .000000000000D+00
     .240000000000D+01  .000000000000D+00 -.605359673500D-08  .250000000000D+02
     .374406000000D+06  .400000000000D+01
10 14  3 13 10  0  0.0 -.117909628898D-03 -.147792889038D-11  .000000000000D+00
     .200000000000D+01  .459687500000D+02  .533307928702D-08  .576650065596D+00
     .268034636974D-05  .134681521449D-01  .626780092716D-05  .515371030617D+04
     .381600000000D+06 -.931322574615D-07  .738243629439D+00  .149011611938D-06
     .942457636481D+00  .248250000000D+03  .859005527314D+00 -.868071872964D-08
     .151077721565D-09  .100000000000D+01  .178300000000D+04  .000000000000D+00
     .240000000000D+01  .000000000000D+00 -.279396772385D-08  .200000000000D+01
     .374406000000D+06  .400000000000D+01
11 14  3 13 10  0  0.0 -.471692997962D-03 -.318323145621D-11  .000000000000D+00
     .890000000000D+02 -.832500000000D+02  .598917804473D-08 -.309193602793D+01
    -.439397990704D-05  .148122233804D-01  .942870974541D-05  .515370455551D+04
     .381600000000D+06  .230967998505D-06 -.636560926289D+00 -.169500708580D-06
     .890400057971D+00  .156593750000D+03  .126826962980D+01 -.847463871700D-08
    -.921466954226D-10  .100000000000D+01  .178300000000D+04  .000000000000D+00
     .340000000000D+01  .000000000000D+00 -.116415321827D-07  .890000000000D+02
     .374406000000D+06  .400000000000D+01
13 14  3 13 10  0  0.0  .206935219467D-04 -.386535248253D-11  .000000000000D+00
     .330000000000D+02 -.392187500000D+02  .426160608443D-08 -.931496740327D+00
    -.211596488953D-05  .530710641760D-02  .708922743797D-05  .515361644173D+04
     .381600000000D+06 -.122934579849D-06  .187730506339D+01  .167638063431D-07
     .977986868096D+00  .252906250000D+03  .220229714965D+01 -.798890419850D-08
    -.412160025262D-09  .100000000000D+01  .178300000000D+04  .000000000000D+00
     .240000000000D+01  .000000000000D+00 -.111758708954D-07  .330000000000D+02
     .374406000000D+06  .400000000000D+01
14 14  3 13 10  0  0.0  .190899707377D-03 -.329691829393D-11  .000000000000D+00
     .320000000000D+02 -.374062500000D+02  .456161858115D-08 -.614448809802D+00
    -.192783772945D-05  .727994891349D-02  .677257776260D-05  .515362645721D+04
     .381600000000D+06 -.186264514923D-08  .184596745342D+01  .931322574615D-07
     .970560414206D+00  .255562500000D+03 -.199570440270D+01 -.824105755884D-08
    -.528236288876D-09  .100000000000D+01  .178300000000D+04  .000000000000D+00
     .240000000000D+01  .000000000000D+00 -.884756445885D-08  .320000000000D+02
     .374406000000D+06  .400000000000D+01
